NORAD_CAT_ID,OBJECT_NAME,OBJECT_TYPE,EPOCH,MEAN_MOTION,ECCENTRICITY,INCLINATION,RA_OF_ASC_NODE,ARG_OF_PERICENTER,MEAN_ANOMALY,BSTAR,MEAN_MOTION_DOT,MEAN_MOTION_DDOT,TLE_LINE0,TLE_LINE1,TLE_LINE2,SEMIMAJOR_AXIS,PERIOD,APOGEE,PERIGEE,DECAYED
50206.0,STARLINK-3258,PAYLOAD,2024-07-16 20:37:23,15.08846983,0.0001389,53.217,56.2465,84.5138,275.6012,0.00011068,1.474e-05,0.0,0 STARLINK-3258,1 50206U 21125BC  24198.85929785  .00001474  00000-0  11068-3 0  9996,2 50206  53.2170  56.2465 0001389  84.5138 275.6012 15.08846983143958,6917.859,95.437,540.685,538.763,0.0
50206.0,STARLINK-3258,PAYLOAD,2024-07-16 22:12:46,15.08851655,0.0001597,53.2172,55.9493,68.3425,291.7737,0.0001937,2.797e-05,0.0,0 STARLINK-3258,1 50206U 21125BC  24198.92553652  .00002797  00000-0  19370-3 0  9993,2 50206  53.2172  55.9493 0001597  68.3425 291.7737 15.08851655143963,6917.845,95.437,540.815,538.605,0.0
50206.0,STARLINK-3258,PAYLOAD,2024-07-17 07:45:05,15.08839277,0.0001532,53.216,54.1677,77.7153,282.401,9.0115e-05,1.146e-05,0.0,0 STARLINK-3258,1 50206U 21125BC  24199.32298174  .00001146  00000-0  90115-4 0  9997,2 50206  53.2160  54.1677 0001532  77.7153 282.4010 15.08839277144021,6917.883,95.438,540.807,538.688,0.0
50206.0,STARLINK-3258,PAYLOAD,2024-07-17 20:28:11,15.08831288,0.0001536,53.2187,51.78,92.3473,267.7695,-8.4476e-05,-1.632e-05,0.0,0 STARLINK-3258,1 50206U 21125BC  24199.85290923 -.00001632  00000-0 -84476-4 0  9994,2 50206  53.2187  51.7800 0001536  92.3473 267.7695 15.08831288144101,6917.907,95.438,540.835,538.709,0.0
50206.0,STARLINK-3258,PAYLOAD,2024-07-18 07:35:53,15.08834505,0.0001317,53.2175,49.7038,90.7384,269.3759,2.8516e-05,1.66e-06,0.0,0 STARLINK-3258,1 50206U 21125BC  24200.31659073  .00000166  00000-0  28516-4 0  9995,2 50206  53.2175  49.7038 0001317  90.7384 269.3759 15.08834505144179,6917.897,95.438,540.673,538.851,0.0
50206.0,STARLINK-3258,PAYLOAD,2024-07-18 20:18:58,15.08845538,0.0001551,53.2154,47.333,61.0053,299.1094,0.00027766,4.134e-05,0.0,0 STARLINK-3258,1 50206U 21125BC  24200.84651014  .00004134  00000-0  27766-3 0  9994,2 50206  53.2154  47.3330 0001551  61.0053 299.1094 15.08845538144259,6917.863,95.437,540.801,538.656,0.0
50206.0,STARLINK-3258,PAYLOAD,2024-07-18 23:29:44,15.08856677,0.0001258,53.2165,46.7283,96.4944,263.6192,0.00050074,7.694e-05,0.0,0 STARLINK-3258,1 50206U 21125BC  24200.97898324  .00007694  00000-0  50074-3 0  9997,2 50206  53.2165  46.7283 0001258  96.4944 263.6192 15.08856677144279,6917.829,95.436,540.565,538.824,0.0
50206.0,STARLINK-3258,PAYLOAD,2024-07-19 20:09:45,15.08849021,0.0001135,53.2159,42.8668,87.5091,272.6031,0.00034982,5.285e-05,0.0,0 STARLINK-3258,1 50206U 21125BC  24201.84010715  .00005285  00000-0  34982-3 0  9998,2 50206  53.2159  42.8668 0001135  87.5091 272.6031 15.08849021144406,6917.853,95.437,540.503,538.933,0.0
50206.0,STARLINK-3258,PAYLOAD,2024-07-19 23:20:31,15.08853708,0.0001091,53.2158,42.2699,93.1755,266.9362,0.00040842,6.221e-05,0.0,0 STARLINK-3258,1 50206U 21125BC  24201.97258484  .00006221  00000-0  40842-3 0  9992,2 50206  53.2158  42.2699 0001091  93.1755 266.9362 15.08853708144426,6917.838,95.437,540.458,538.949,0.0
50206.0,STARLINK-3258,PAYLOAD,2024-07-20 20:00:32,15.08846908,0.0001102,53.2164,38.4022,74.9779,285.1335,0.00028923,4.319e-05,0.0,0 STARLINK-3258,1 50206U 21125BC  24202.83370740  .00004319  00000-0  28923-3 0  9990,2 50206  53.2164  38.4022 0001102  74.9779 285.1335 15.08846908144557,6917.859,95.437,540.487,538.962,0.0
50206.0,STARLINK-3258,PAYLOAD,2024-07-21 11:54:23,15.08840051,0.0001837,53.2165,35.4305,88.8998,271.2204,0.00027492,4.09e-05,0.0,0 STARLINK-3258,1 50206U 21125BC  24203.49611103  .00004090  00000-0  27492-3 0  9990,2 50206  53.2165  35.4305 0001837  88.8998 271.2204 15.08840051144656,6917.88,95.438,541.016,538.474,0.0
50206.0,STARLINK-3258,PAYLOAD,2024-07-21 18:15:56,15.08838747,0.0001416,53.2172,34.2444,105.0029,255.112,0.00010413,1.37e-05,0.0,0 STARLINK-3258,1 50206U 21125BC  24203.76107181  .00001370  00000-0  10413-3 0  9999,2 50206  53.2172  34.2444 0001416 105.0029 255.1120 15.08838747144696,6917.884,95.438,540.729,538.77,0.0
50206.0,STARLINK-3258,PAYLOAD,2024-07-22 11:45:11,15.08844603,0.0001267,53.217,30.9733,95.0966,265.0171,0.00027988,4.17e-05,0.0,0 STARLINK-3258,1 50206U 21125BC  24204.48971204  .00004170  00000-0  27988-3 0  9990,2 50206  53.2170  30.9733 0001267  95.0966 265.0171 15.08844603144807,6917.866,95.437,540.608,538.855,0.0
50206.0,STARLINK-3258,PAYLOAD,2024-07-23 05:14:25,15.08854218,0.0001289,53.2168,27.7028,74.1564,285.9571,0.00041747,6.365e-05,0.0,0 STARLINK-3258,1 50206U 21125BC  24205.21834772  .00006365  00000-0  41747-3 0  9997,2 50206  53.2168  27.7028 0001289  74.1564 285.9571 15.08854218144911,6917.837,95.437,540.594,538.81,0.0
50206.0,STARLINK-3258,PAYLOAD,2024-07-24 11:26:45,15.08835255,0.0001381,53.2172,22.0533,75.8016,284.3129,-1.3507e-05,-5.03e-06,0.0,0 STARLINK-3258,1 50206U 21125BC  24206.47691564 -.00000503  00000-0 -13507-4 0  9990,2 50206  53.2172  22.0533 0001381  75.8016 284.3129 15.08835255145102,6917.895,95.438,540.715,538.805,0.0
50206.0,STARLINK-3258,PAYLOAD,2024-07-26 11:08:19,15.08846064,0.0001387,53.2172,13.1321,76.5044,283.6103,0.00019052,2.746e-05,0.0,0 STARLINK-3258,1 50206U 21125BC  24208.46411296  .00002746  00000-0  19052-3 0  9992,2 50206  53.2172  13.1321 0001387  76.5044 283.6103 15.08846064145400,6917.862,95.437,540.686,538.767,0.0
50206.0,STARLINK-3258,PAYLOAD,2024-07-26 19:05:14,15.08852895,0.0001329,53.2154,11.6425,95.1976,264.9168,0.00023559,3.465e-05,0.0,0 STARLINK-3258,1 50206U 21125BC  24208.79530713  .00003465  00000-0  23559-3 0  9990,2 50206  53.2154  11.6425 0001329  95.1976 264.9168 15.08852895145452,6917.841,95.437,540.625,538.787,0.0
50206.0,STARLINK-3258,PAYLOAD,2024-07-27 10:59:06,15.08840022,0.0001419,53.216,8.6681,90.0039,270.1115,4.0354e-05,3.54e-06,0.0,0 STARLINK-3258,1 50206U 21125BC  24209.45771357  .00000354  00000-0  40354-4 0  9992,2 50206  53.2160   8.6681 0001419  90.0039 270.1115 15.08840022145554,6917.88,95.438,540.727,538.764,0.0
50206.0,STARLINK-3258,PAYLOAD,2024-07-27 18:56:02,15.08840078,0.0001357,53.2167,7.1817,87.3785,272.7362,3.3757e-05,2.49e-06,0.0,0 STARLINK-3258,1 50206U 21125BC  24209.78891365  .00000249  00000-0  33757-4 0  9992,2 50206  53.2167   7.1817 0001357  87.3785 272.7362 15.08840078145603,6917.88,95.438,540.684,538.806,0.0
50206.0,STARLINK-3258,PAYLOAD,2024-07-28 17:11:25,15.08847756,0.0001312,53.2179,3.0195,87.6481,272.4662,0.00011037,1.469e-05,0.0,0 STARLINK-3258,1 50206U 21125BC  24210.71627076  .00001469  00000-0  11037-3 0  9994,2 50206  53.2179   3.0195 0001312  87.6481 272.4662 15.08847756145742,6917.857,95.437,540.629,538.814,0.0
50206.0,STARLINK-3258,PAYLOAD,2024-07-29 10:40:40,15.08840014,0.0001675,53.2195,359.7498,92.689,267.4294,0.00012313,1.672e-05,0.0,0 STARLINK-3258,1 50206U 21125BC  24211.44491546  .00001672  00000-0  12313-3 0  9990,2 50206  53.2195 359.7498 0001675  92.6890 267.4294 15.08840014145856,6917.88,95.438,540.904,538.587,0.0
50206.0,STARLINK-3258,PAYLOAD,2024-07-29 18:37:36,15.0884218,0.0001634,53.2177,358.2649,88.0868,272.0311,0.00014609,2.038e-05,0.0,0 STARLINK-3258,1 50206U 21125BC  24211.77611473  .00002038  00000-0  14609-3 0  9996,2 50206  53.2177 358.2649 0001634  88.0868 272.0311 15.08842180145901,6917.874,95.437,540.869,538.608,0.0
50206.0,STARLINK-3258,PAYLOAD,2024-07-30 02:34:31,15.08841539,9.32e-05,53.2165,356.7758,74.8825,285.227,0.00012234,1.66e-05,0.0,0 STARLINK-3258,1 50206U 21125BC  24212.10731365  .00001660  00000-0  12234-3 0  9999,2 50206  53.2165 356.7758 0000932  74.8825 285.2270 15.08841539145950,6917.876,95.437,540.385,539.096,0.0
50206.0,STARLINK-3258,PAYLOAD,2024-07-30 18:28:23,15.08839232,0.0001067,53.2156,353.8002,69.0158,291.0948,1.8059e-05,0.0,0.0,0 STARLINK-3258,1 50206U 21125BC  24212.76971650 -.00000000  00000-0  18059-4 0  9994,2 50206  53.2156 353.8002 0001067  69.0158 291.0948 15.08839232146051,6917.883,95.438,540.486,539.01,0.0
50206.0,STARLINK-3258,PAYLOAD,2024-07-31 13:33:01,15.0883979,0.0001869,53.2135,350.2328,83.4841,276.6364,-0.00018505,-3.232e-05,0.0,0 STARLINK-3258,1 50206U 21125BC  24213.56460034 -.00003232  00000-0 -18505-3 0  9998,2 50206  53.2135 350.2328 0001869  83.4841 276.6364 15.08839790146172,6917.881,95.438,541.039,538.453,0.0
50206.0,STARLINK-3258,PAYLOAD,2024-07-31 18:19:10,15.08846195,8.89e-05,53.2162,349.3396,95.23,264.8793,0.0001003,1.309e-05,0.0,0 STARLINK-3258,1 50206U 21125BC  24213.76331645  .00001309  00000-0  10030-3 0  9991,2 50206  53.2162 349.3396 0000889  95.2300 264.8793 15.08846195146204,6917.861,95.437,540.341,539.111,0.0
50206.0,STARLINK-3258,PAYLOAD,2024-08-01 16:34:33,15.08848993,0.0001024,53.218,345.1763,106.0212,254.0893,0.00022693,3.327e-05,0.0,0 STARLINK-3258,1 50206U 21125BC  24214.69066967  .00003327  00000-0  22693-3 0  9996,2 50206  53.2180 345.1763 0001024 106.0212 254.0893 15.08848993146346,6917.853,95.437,540.426,539.01,0.0
50206.0,STARLINK-3258,PAYLOAD,2024-08-02 02:06:53,15.08838731,0.0001427,53.2194,343.3915,97.2888,262.8266,8.3371e-05,1.039e-05,0.0,0 STARLINK-3258,1 50206U 21125BC  24215.08811957  .00001039  00000-0  83371-4 0  9996,2 50206  53.2194 343.3915 0001427  97.2888 262.8266 15.08838731146404,6917.884,95.438,540.736,538.762,0.0
50206.0,STARLINK-3258,PAYLOAD,2024-08-02 13:14:36,15.08831077,0.000149,53.2168,341.314,95.4609,264.6553,-2.0246e-05,-6.1e-06,0.0,0 STARLINK-3258,1 50206U 21125BC  24215.55180576 -.00000610  00000-0 -20246-4 0  9992,2 50206  53.2168 341.3140 0001490  95.4609 264.6553 15.08831077146476,6917.908,95.438,540.803,538.742,0.0
50206.0,STARLINK-3258,PAYLOAD,2024-08-02 14:49:58,15.08835499,0.0001316,53.2172,341.0157,101.4656,258.6484,-7.4238e-05,-1.469e-05,0.0,0 STARLINK-3258,1 50206U 21125BC  24215.61804393 -.00001469  00000-0 -74238-4 0  9992,2 50206  53.2172 341.0157 0001316 101.4656 258.6484 15.08835499146482,6917.894,95.438,540.67,538.849,0.0
